ORBCOMM FM115           
1 41186U 15081H   25358.96868717  .00000608  00000+0  15169-3 0  9998
2 41186  46.9968 211.9215 0001209 234.2158 125.8617 14.62942005535705
ORBCOMM FM108           
1 41187U 15081J   25358.83734058  .00000952  00000+0  23887-3 0  9993
2 41187  47.0056 286.3509 0001811 107.3342 252.7742 14.58581646534626
ORBCOMM FM117           
1 41188U 15081K   25358.18648007  .00000931  00000+0  23447-3 0  9999
2 41188  47.0019 288.1197 0002152 113.7109 246.4002 14.58605420534570
ORBCOMM FM116           
1 41189U 15081L   25358.78333762  .00000925  00000+0  23310-3 0  9997
2 41189  47.0033  15.0705 0002461 306.6035  53.4624 14.58600051533472
